NORAD_CAT_ID,OBJECT_NAME,OBJECT_TYPE,EPOCH,MEAN_MOTION,ECCENTRICITY,INCLINATION,RA_OF_ASC_NODE,ARG_OF_PERICENTER,MEAN_ANOMALY,BSTAR,MEAN_MOTION_DOT,MEAN_MOTION_DDOT,TLE_LINE0,TLE_LINE1,TLE_LINE2,SEMIMAJOR_AXIS,PERIOD,APOGEE,PERIGEE,DECAYED
54770.0,STARLINK-5448,PAYLOAD,2023-10-01 09:37:45,15.08836087,0.0001714,53.2195,65.9634,96.4806,263.6382,0.0001914,2.759e-05,0.0,0 STARLINK-5448,1 54770U 22175N   23274.40122376  .00002759  00000-0  19140-3 0  9994,2 54770  53.2195  65.9634 0001714  96.4806 263.6382 15.08836087 45723,6917.892,95.438,540.943,538.572,0.0
54770.0,STARLINK-5448,PAYLOAD,2023-10-01 17:34:41,15.08844208,0.000162,53.2182,64.4749,89.1687,270.9491,9.476e-05,1.221e-05,0.0,0 STARLINK-5448,1 54770U 22175N   23274.73242102  .00001221  00000-0  94760-4 0  9995,2 54770  53.2182  64.4749 0001620  89.1687 270.9491 15.08844208 45773,6917.868,95.437,540.853,538.612,0.0
54770.0,STARLINK-5448,PAYLOAD,2023-10-02 11:03:56,15.08835588,0.0001545,53.2188,61.2049,87.661,272.456,1.9879e-05,2.8e-07,0.0,0 STARLINK-5448,1 54770U 22175N   23275.46107015  .00000028  00000-0  19879-4 0  9991,2 54770  53.2188  61.2049 0001545  87.6610 272.4560 15.08835588 43720,6917.894,95.438,540.828,538.69,0.0
54770.0,STARLINK-5448,PAYLOAD,2023-10-02 17:25:28,15.08838258,0.0001491,53.2186,60.0148,86.2106,273.9056,3.3889e-05,2.51e-06,0.0,0 STARLINK-5448,1 54770U 22175N   23275.72602877  .00000251  00000-0  33889-4 0  9991,2 54770  53.2186  60.0148 0001491  86.2106 273.9056 15.08838258 45927,6917.886,95.438,540.782,538.719,0.0
54770.0,STARLINK-5448,PAYLOAD,2023-10-03 14:05:29,15.08840847,0.0001565,53.2177,56.149,81.4277,278.6892,9.0453e-05,1.152e-05,0.0,0 STARLINK-5448,1 54770U 22175N   23276.58714815  .00001152  00000-0  90453-4 0  9993,2 54770  53.2177  56.1490 0001565  81.4277 278.6892 15.08840847 46053,6917.878,95.438,540.825,538.66,0.0
54770.0,STARLINK-5448,PAYLOAD,2023-10-03 18:51:38,15.08846708,0.0001556,53.2174,55.2555,79.5592,280.5575,0.0001623,2.296e-05,0.0,0 STARLINK-5448,1 54770U 22175N   23276.78586506  .00002296  00000-0  16230-3 0  9999,2 54770  53.2174  55.2555 0001556  79.5592 280.5575 15.08846708 43925,6917.86,95.437,540.801,538.648,0.0
54770.0,STARLINK-5448,PAYLOAD,2023-10-04 09:10:07,15.08838521,0.0001509,53.2188,52.5796,93.6414,266.4751,0.00027336,4.065e-05,0.0,0 STARLINK-5448,1 54770U 22175N   23277.38202957  .00004065  00000-0  27336-3 0  9996,2 54770  53.2188  52.5796 0001509  93.6414 266.4751 15.08838521 44019,6917.885,95.438,540.794,538.706,0.0
54770.0,STARLINK-5448,PAYLOAD,2023-10-04 13:56:16,15.08845791,0.0001721,53.2188,51.6898,89.369,270.75,0.00025886,3.835e-05,0.0,0 STARLINK-5448,1 54770U 22175N   23277.58074610  .00003835  00000-0  25886-3 0  9993,2 54770  53.2188  51.6898 0001721  89.3690 270.7500 15.08845791 46206,6917.863,95.437,540.918,538.537,0.0
54770.0,STARLINK-5448,PAYLOAD,2023-10-04 15:31:39,15.08846625,0.0001425,53.2183,51.3915,86.1883,273.9273,0.00025988,3.851e-05,0.0,0 STARLINK-5448,1 54770U 22175N   23277.64698591  .00003851  00000-0  25988-3 0  9991,2 54770  53.2183  51.3915 0001425  86.1883 273.9273 15.08846625 46218,6917.86,95.437,540.711,538.739,0.0
54770.0,STARLINK-5448,PAYLOAD,2023-10-05 09:00:54,15.08842058,0.0001462,53.2167,48.1202,78.7622,281.3534,0.00012278,1.667e-05,0.0,0 STARLINK-5448,1 54770U 22175N   23278.37562803  .00001667  00000-0  12278-3 0  9999,2 54770  53.2167  48.1202 0001462  78.7622 281.3534 15.08842058 44163,6917.874,95.437,540.75,538.728,0.0
54770.0,STARLINK-5448,PAYLOAD,2023-10-05 13:47:03,15.08843349,0.0001493,53.2176,47.227,95.0012,265.115,0.00011772,1.586e-05,0.0,0 STARLINK-5448,1 54770U 22175N   23278.57434684  .00001586  00000-0  11772-3 0  9994,2 54770  53.2176  47.2270 0001493  95.0012 265.1150 15.08843349 46358,6917.87,95.437,540.768,538.702,0.0
54770.0,STARLINK-5448,PAYLOAD,2023-10-05 15:22:26,15.08846163,0.0001559,53.2188,46.9294,92.9553,267.1618,0.00010548,1.391e-05,0.0,0 STARLINK-5448,1 54770U 22175N   23278.64058512  .00001391  00000-0  10548-3 0  9998,2 54770  53.2188  46.9294 0001559  92.9553 267.1618 15.08846163 46361,6917.862,95.437,540.805,538.648,0.0
54770.0,STARLINK-5448,PAYLOAD,2023-10-06 08:51:41,15.08834995,0.000149,53.2187,43.6604,94.3536,265.7626,-9.0444e-05,-1.727e-05,0.0,0 STARLINK-5448,1 54770U 22175N   23279.36923105 -.00001727  00000-0 -90444-4 0  9996,2 54770  53.2187  43.6604 0001490  94.3536 265.7626 15.08834995 44316,6917.896,95.438,540.791,538.73,0.0
54770.0,STARLINK-5448,PAYLOAD,2023-10-06 13:37:51,15.0883764,0.0001521,53.2191,42.7687,95.1524,264.9642,-4.7488e-05,-1.044e-05,0.0,0 STARLINK-5448,1 54770U 22175N   23279.56795153 -.00001044  00000-0 -47488-4 0  9990,2 54770  53.2191  42.7687 0001521  95.1524 264.9642 15.08837640 46505,6917.888,95.438,540.805,538.7,0.0
54770.0,STARLINK-5448,PAYLOAD,2023-10-06 15:13:14,15.08838569,0.0001578,53.2195,42.4709,97.8132,262.3039,-3.2162e-05,-8e-06,0.0,0 STARLINK-5448,1 54770U 22175N   23279.63419007 -.00000800  00000-0 -32162-4 0  9991,2 54770  53.2195  42.4709 0001578  97.8132 262.3039 15.08838569 46511,6917.885,95.438,540.841,538.658,0.0
54770.0,STARLINK-5448,PAYLOAD,2023-10-07 13:28:37,15.08844751,0.0001539,53.2186,38.3078,93.4156,266.7012,0.00022044,3.222e-05,0.0,0 STARLINK-5448,1 54770U 22175N   23280.56155011  .00003222  00000-0  22044-3 0  9993,2 54770  53.2186  38.3078 0001539  93.4156 266.7012 15.08844751 46653,6917.866,95.437,540.796,538.666,0.0
54770.0,STARLINK-5448,PAYLOAD,2023-10-07 18:14:46,15.08857794,0.0001415,53.2185,37.4146,83.7374,276.378,0.00036297,5.496e-05,0.0,0 STARLINK-5448,1 54770U 22175N   23280.76026222  .00005496  00000-0  36297-3 0  9996,2 54770  53.2185  37.4146 0001415  83.7374 276.3780 15.08857794 44529,6917.826,95.436,540.67,538.712,0.0
54770.0,STARLINK-5448,PAYLOAD,2023-10-08 00:36:20,15.08832901,0.0002213,53.2188,36.2252,86.5737,273.5508,-3.5135e-06,-3.44e-06,0.0,0 STARLINK-5448,1 54770U 22175N   23281.02523698 -.00000344  00000-0 -35135-5 0  9996,2 54770  53.2188  36.2252 0002213  86.5737 273.5508 15.08832901 44562,6917.902,95.438,541.298,538.236,0.0
54770.0,STARLINK-5448,PAYLOAD,2023-10-08 13:19:25,15.08843683,0.0001735,53.219,33.8474,94.9418,265.1772,0.00016675,2.367e-05,0.0,0 STARLINK-5448,1 54770U 22175N   23281.55515247  .00002367  00000-0  16675-3 0  9996,2 54770  53.2190  33.8474 0001735  94.9418 265.1772 15.08843683 46809,6917.869,95.437,540.934,538.534,0.0
54770.0,STARLINK-5448,PAYLOAD,2023-10-08 18:05:34,15.08853251,0.000144,53.2185,32.954,89.3833,270.7324,0.00029014,4.334e-05,0.0,0 STARLINK-5448,1 54770U 22175N   23281.75386633  .00004334  00000-0  29014-3 0  9990,2 54770  53.2185  32.9540 0001440  89.3833 270.7324 15.08853251 46839,6917.84,95.437,540.701,538.709,0.0
54770.0,STARLINK-5448,PAYLOAD,2023-10-09 00:27:06,15.08846965,0.0001321,53.2179,31.7658,75.6696,284.4443,0.00015291,2.147e-05,0.0,0 STARLINK-5448,1 54770U 22175N   23282.01882804  .00002147  00000-0  15291-3 0  9993,2 54770  53.2179  31.7658 0001321  75.6696 284.4443 15.08846965 44715,6917.859,95.437,540.638,538.81,0.0
54770.0,STARLINK-5448,PAYLOAD,2023-10-09 13:10:12,15.08836414,0.0002073,53.2204,29.3896,82.8711,277.2517,-6.9165e-05,-1.389e-05,0.0,0 STARLINK-5448,1 54770U 22175N   23282.54875515 -.00001389  00000-0 -69165-4 0  9991,2 54770  53.2204  29.3896 0002073  82.8711 277.2517 15.08836414 46952,6917.891,95.438,541.19,538.322,0.0
54770.0,STARLINK-5448,PAYLOAD,2023-10-09 14:45:35,15.0884895,0.0001594,53.2186,29.0884,70.4678,289.6487,3.2454e-05,2.29e-06,0.0,0 STARLINK-5448,1 54770U 22175N   23282.61498893  .00000229  00000-0  32454-4 0  9990,2 54770  53.2186  29.0884 0001594  70.4678 289.6487 15.08848950 46969,6917.853,95.437,540.821,538.615,0.0
54770.0,STARLINK-5448,PAYLOAD,2023-10-10 13:00:58,15.08851775,0.0001333,53.218,24.928,75.9822,284.1318,0.00025662,3.8e-05,0.0,0 STARLINK-5448,1 54770U 22175N   23283.54234715  .00003800  00000-0  25662-3 0  9994,2 54770  53.2180  24.9280 0001333  75.9822 284.1318 15.08851775 44947,6917.844,95.437,540.632,538.787,0.0
54770.0,STARLINK-5448,PAYLOAD,2023-10-10 16:11:44,15.08863306,0.0001588,53.2187,24.3307,87.5176,272.5998,0.00049632,7.625e-05,0.0,0 STARLINK-5448,1 54770U 22175N   23283.67482371  .00007625  00000-0  49632-3 0  9993,2 54770  53.2187  24.3307 0001588  87.5176 272.5998 15.08863306 44961,6917.809,95.436,540.773,538.576,0.0
54770.0,STARLINK-5448,PAYLOAD,2023-10-11 12:51:46,15.08837556,0.0001639,53.2186,20.4671,86.8894,273.2285,1.813e-06,-2.59e-06,0.0,0 STARLINK-5448,1 54770U 22175N   23284.53595479 -.00000259  00000-0  18130-5 0  9991,2 54770  53.2186  20.4671 0001639  86.8894 273.2285 15.08837556 45097,6917.888,95.438,540.887,538.619,0.0
54770.0,STARLINK-5448,PAYLOAD,2023-10-12 12:42:33,15.08846914,0.0001622,53.219,16.0067,89.3795,270.7383,0.00026666,3.959e-05,0.0,0 STARLINK-5448,1 54770U 22175N   23285.52955491  .00003959  00000-0  26666-3 0  9995,2 54770  53.2190  16.0067 0001622  89.3795 270.7383 15.08846914 47408,6917.859,95.437,540.846,538.602,0.0
54770.0,STARLINK-5448,PAYLOAD,2023-10-13 12:33:20,15.0884848,0.0001519,53.2181,11.5445,90.8808,269.2358,0.0003427,5.172e-05,0.0,0 STARLINK-5448,1 54770U 22175N   23286.52315661  .00005172  00000-0  34270-3 0  9994,2 54770  53.2181  11.5445 0001519  90.8808 269.2358 15.08848480 45396,6917.854,95.437,540.77,538.669,0.0
54770.0,STARLINK-5448,PAYLOAD,2023-10-14 12:24:07,15.08862075,0.000145,53.2179,7.0866,86.9167,273.1991,0.0004258,6.499e-05,0.0,0 STARLINK-5448,1 54770U 22175N   23287.51674804  .00006499  00000-0  42580-3 0  9997,2 54770  53.2179   7.0866 0001450  86.9167 273.1991 15.08862075 47708,6917.813,95.436,540.681,538.675,0.0
54770.0,STARLINK-5448,PAYLOAD,2023-10-14 21:56:25,15.08849892,0.0001338,53.218,5.3018,82.1464,277.968,0.00013232,1.819e-05,0.0,0 STARLINK-5448,1 54770U 22175N   23287.91418915  .00001819  00000-0  13232-3 0  9993,2 54770  53.2180   5.3018 0001338  82.1464 277.9680 15.08849892 47768,6917.85,95.437,540.641,538.79,0.0
